JILIN-1 GAOFEN 3A       
1 44312U 19032C   26068.74542089  .00016264  00000+0  55381-3 0  9993
2 44312  44.9746 183.2861 0002618 111.2900 248.8263 15.30271310372592
STARLINK-36169          
1 66929U 25286E   26068.18794224  .00031745  00000+0  10794-2 0  9996
2 66929  53.1599   0.5231 0000938  52.5724 307.5362 15.30198841 15341
